{"type": "FeatureCollection", "features": [ {"type": "Feature", "properties": {"norad_id": 35825, "name": "COSMOS 2251 DEB", "group": "cosmos-2251-debris", "lat": -71.88004770257855, "lon": 37.58839758612945, "alt_km": 744.1790922276086, "timestamp": "2025-12-03T22:42:33.029279+00:00", "meta": {"OBJECT_NAME": "COSMOS 2251 DEB", "OBJECT_ID": "1993-036ASX", "EPOCH": "2025-11-18T20:38:01.180896", "MEAN_MOTION": 13.70825357, "ECCENTRICITY": 0.03535711, "INCLINATION": 74.1138, "RA_OF_ASC_NODE": 181.8907, "ARG_OF_PERICENTER": 283.1782, "MEAN_ANOMALY": 73.0118, "EPHEMERIS_TYPE": 0, "CLASSIFICATION_TYPE": "U", "NORAD_CAT_ID": 35825, "ELEMENT_SET_NO": 999, "REV_AT_EPOCH": 82181, "BSTAR": 0.0013809564, "MEAN_MOTION_DOT": 1.891e-05, "MEAN_MOTION_DDOT": 0}, "tle": {"line1": "1 35825U 93036ASX 25322.85973589  .00001891  00000+0  13810-2 0  9995", "line2": "2 35825  74.1138 181.8907 0353571 283.1782  73.0118 13.70825357821819"}}, "geometry": {"type": "Point", "coordinates": [37.58839758612945, -71.88004770257855]}}, {"type": "Feature", "properties": {"norad_id": 35829, "name": "COSMOS 2251 DEB", "group": "cosmos-2251-debris", "lat": 54.31790029517605, "lon": 139.5483416453613, "alt_km": 639.7190372368595, "timestamp": "2025-12-03T22:42:33.029288+00:00", "meta": {"OBJECT_NAME": "COSMOS 2251 DEB", "OBJECT_ID": "1993-036ATB", "EPOCH": "2025-11-30T16:21:21.662208", "MEAN_MOTION": 14.75731719, "ECCENTRICITY": 0.00079875, "INCLINATION": 74.0228, "RA_OF_ASC_NODE": 122.4242, "ARG_OF_PERICENTER": 184.1441, "MEAN_ANOMALY": 175.9668, "EPHEMERIS_TYPE": 0, "CLASSIFICATION_TYPE": "U", "NORAD_CAT_ID": 35829, "ELEMENT_SET_NO": 999, "REV_AT_EPOCH": 87597, "BSTAR": 0.0025962161, "MEAN_MOTION_DOT": 0.00017791, "MEAN_MOTION_DDOT": 0}, "tle": {"line1": "1 35829U 93036ATB 25334.68150072  .00017791  00000+0  25962-2 0  9994", "line2": "2 35829  74.0228 122.4242 0007987 184.1441 175.9668 14.75731719875976"}}, "geometry": {"type": "Point", "coordinates": [139.5483416453613, 54.31790029517605]}}, {"type": "Feature", "properties": {"norad_id": 35830, "name": "COSMOS 2251 DEB", "group": "cosmos-2251-debris", "lat": -27.28814490315867, "lon": 111.03037889108207, "alt_km": 753.2323377888615, "timestamp": "2025-12-03T22:42:33.029297+00:00", "meta": {"OBJECT_NAME": "COSMOS 2251 DEB", "OBJECT_ID": "1993-036ATC", "EPOCH": "2025-12-03T04:51:39.093120", "MEAN_MOTION": 14.23892585, "ECCENTRICITY": 0.0123282, "INCLINATION": 73.8624, "RA_OF_ASC_NODE": 283.793, "ARG_OF_PERICENTER": 253.8519, "MEAN_ANOMALY": 104.9029, "EPHEMERIS_TYPE": 0, "CLASSIFICATION_TYPE": "U", "NORAD_CAT_ID": 35830, "ELEMENT_SET_NO": 999, "REV_AT_EPOCH": 61128, "BSTAR": 0.0012831, "MEAN_MOTION_DOT": 3.154e-05, "MEAN_MOTION_DDOT": 0}, "tle": {"line1": "1 35830U 93036ATC 25337.20253580  .00003154  00000+0  12831-2 0  9994", "line2": "2 35830  73.8624 283.7930 0123282 253.8519 104.9029 14.23892585611284"}}, "geometry": {"type": "Point", "coordinates": [111.03037889108207, -27.28814490315867]}}, {"type": "Feature", "properties": {"norad_id": 35834, "name": "COSMOS 2251 DEB", "group": "cosmos-2251-debris", "lat": 32.180306309730675, "lon": -29.36002606032466, "alt_km": 844.3225284654909, "timestamp": "2025-12-03T22:42:33.029306+00:00", "meta": {"OBJECT_NAME": "COSMOS 2251 DEB", "OBJECT_ID": "1993-036ATG", "EPOCH": "2025-12-03T09:39:35.307072", "MEAN_MOTION": 14.12966423, "ECCENTRICITY": 0.0109075, "INCLINATION": 73.9307, "RA_OF_ASC_NODE": 321.1574, "ARG_OF_PERICENTER": 123.5318, "MEAN_ANOMALY": 26.7998, "EPHEMERIS_TYPE": 0, "CLASSIFICATION_TYPE": "U", "NORAD_CAT_ID": 35834, "ELEMENT_SET_NO": 999, "REV_AT_EPOCH": 66131, "BSTAR": 0.00019432, "MEAN_MOTION_DOT": 3.59e-06, "MEAN_MOTION_DDOT": 0}, "tle": {"line1": "1 35834U 93036ATG 25337.40249198  .00000359  00000+0  19432-3 0  9999", "line2": "2 35834  73.9307 321.1574 0109075 123.5318  26.7998 14.12966423661318"}}, "geometry": {"type": "Point", "coordinates": [-29.36002606032466, 32.180306309730675]}}, {"type": "Feature", "properties": {"norad_id": 35835, "name": "COSMOS 2251 DEB", "group": "cosmos-2251-debris", "lat": -24.800603344165577, "lon": 110.81156491140976, "alt_km": 1115.4869151741514, "timestamp": "2025-12-03T22:42:33.029315+00:00", "meta": {"OBJECT_NAME": "COSMOS 2251 DEB", "OBJECT_ID": "1993-036ATH", "EPOCH": "2025-11-23T15:11:23.439552", "MEAN_MOTION": 13.82767918, "ECCENTRICITY": 0.02888493, "INCLINATION": 74.0623, "RA_OF_ASC_NODE": 300.5555, "ARG_OF_PERICENTER": 86.7647, "MEAN_ANOMALY": 276.6477, "EPHEMERIS_TYPE": 0, "CLASSIFICATION_TYPE": "U", "NORAD_CAT_ID": 35835, "ELEMENT_SET_NO": 999, "REV_AT_EPOCH": 61435, "BSTAR": 0.00097699609, "MEAN_MOTION_DOT": 1.444e-05, "MEAN_MOTION_DDOT": 0}, "tle": {"line1": "1 35835U 93036ATH 25327.63291018  .00001444  00000+0  97700-3 0  9992", "line2": "2 35835  74.0623 300.5555 0288849  86.7647 276.6477 13.82767918614358"}}, "geometry": {"type": "Point", "coordinates": [110.81156491140976, -24.800603344165577]}}, {"type": "Feature", "properties": {"norad_id": 35836, "name": "COSMOS 2251 DEB", "group": "cosmos-2251-debris", "lat": 19.96301780949152, "lon": 4.0399103877827836, "alt_km": 658.8315298753514, "timestamp": "2025-12-03T22:42:33.029324+00:00", "meta": {"OBJECT_NAME": "COSMOS 2251 DEB", "OBJECT_ID": "1993-036ATJ", "EPOCH": "2025-12-03T07:17:31.835616", "MEAN_MOTION": 14.70639126, "ECCENTRICITY": 0.0025001, "INCLINATION": 74.0317, "RA_OF_ASC_NODE": 191.2565, "ARG_OF_PERICENTER": 251.0331, "MEAN_ANOMALY": 108.8131, "EPHEMERIS_TYPE": 0, "CLASSIFICATION_TYPE": "U", "NORAD_CAT_ID": 35836, "ELEMENT_SET_NO": 999, "REV_AT_EPOCH": 63381, "BSTAR": 0.0020272, "MEAN_MOTION_DOT": 0.00012386, "MEAN_MOTION_DDOT": 0}, "tle": {"line1": "1 35836U 93036ATJ 25337.30384069  .00012386  00000+0  20272-2 0  9993", "line2": "2 35836  74.0317 191.2565 0025001 251.0331 108.8131 14.70639126633813"}}, "geometry": {"type": "Point", "coordinates": [4.0399103877827836, 19.96301780949152]}}, {"type": "Feature", "properties": {"norad_id": 35837, "name": "COSMOS 2251 DEB", "group": "cosmos-2251-debris", "lat": -60.61982182411326, "lon": 73.51791095276695, "alt_km": 1075.2953865716736, "timestamp": "2025-12-03T22:42:33.029333+00:00", "meta": {"OBJECT_NAME": "COSMOS 2251 DEB", "OBJECT_ID": "1993-036ATK", "EPOCH": "2025-12-01T23:51:57.289248", "MEAN_MOTION": 13.6337538, "ECCENTRICITY": 0.04221684, "INCLINATION": 73.722, "RA_OF_ASC_NODE": 225.5014, "ARG_OF_PERICENTER": 147.9905, "MEAN_ANOMALY": 236.1342, "EPHEMERIS_TYPE": 0, "CLASSIFICATION_TYPE": "U", "NORAD_CAT_ID": 35837, "ELEMENT_SET_NO": 999, "REV_AT_EPOCH": 57830, "BSTAR": 0.0015598764, "MEAN_MOTION_DOT": 2.227e-05, "MEAN_MOTION_DDOT": 0}, "tle": {"line1": "1 35837U 93036ATK 25335.99441307  .00002227  00000+0  15599-2 0  9995", "line2": "2 35837  73.7220 225.5014 0422168 147.9905 236.1342 13.63375380578309"}}, "geometry": {"type": "Point", "coordinates": [73.51791095276695, -60.61982182411326]}}, {"type": "Feature", "properties": {"norad_id": 35839, "name": "COSMOS 2251 DEB", "group": "cosmos-2251-debris", "lat": 22.84203834858626, "lon": 155.73304663536427, "alt_km": 432.10725551541054, "timestamp": "2025-12-03T22:42:33.029342+00:00", "meta": {"OBJECT_NAME": "COSMOS 2251 DEB", "OBJECT_ID": "1993-036ATM", "EPOCH": "2025-12-02T18:04:00.304320", "MEAN_MOTION": 15.45026888, "ECCENTRICITY": 0.00040607, "INCLINATION": 74.215, "RA_OF_ASC_NODE": 345.1466, "ARG_OF_PERICENTER": 349.3631, "MEAN_ANOMALY": 10.7494, "EPHEMERIS_TYPE": 0, "CLASSIFICATION_TYPE": "U", "NORAD_CAT_ID": 35839, "ELEMENT_SET_NO": 999, "REV_AT_EPOCH": 88413, "BSTAR": 0.0039662288, "MEAN_MOTION_DOT": 0.00191992, "MEAN_MOTION_DDOT": 0}, "tle": {"line1": "1 35839U 93036ATM 25336.75278130  .00191992  00000+0  39662-2 0  9999", "line2": "2 35839  74.2150 345.1466 0004060 349.3631  10.7494 15.45026888884133"}}, "geometry": {"type": "Point", "coordinates": [155.73304663536427, 22.84203834858626]}}, {"type": "Feature", "properties": {"norad_id": 35840, "name": "COSMOS 2251 DEB", "group": "cosmos-2251-debris", "lat": -32.667114917962536, "lon": 5.125943936160437, "alt_km": 830.0782275227139, "timestamp": "2025-12-03T22:42:33.029351+00:00", "meta": {"OBJECT_NAME": "COSMOS 2251 DEB", "OBJECT_ID": "1993-036ATN", "EPOCH": "2025-12-03T06:41:48.528096", "MEAN_MOTION": 14.37668767, "ECCENTRICITY": 0.0116177, "INCLINATION": 73.9299, "RA_OF_ASC_NODE": 175.711, "ARG_OF_PERICENTER": 80.5155, "MEAN_ANOMALY": 280.9106, "EPHEMERIS_TYPE": 0, "CLASSIFICATION_TYPE": "U", "NORAD_CAT_ID": 35840, "ELEMENT_SET_NO": 999, "REV_AT_EPOCH": 85155, "BSTAR": 0.0020521, "MEAN_MOTION_DOT": 6.645e-05, "MEAN_MOTION_DDOT": 0}, "tle": {"line1": "1 35840U 93036ATN 25337.27903389  .00006645  00000+0  20521-2 0  9994", "line2": "2 35840  73.9299 175.7110 0116177  80.5155 280.9106 14.37668767851555"}}, "geometry": {"type": "Point", "coordinates": [5.125943936160437, -32.667114917962536]}}, {"type": "Feature", "properties": {"norad_id": 35883, "name": "COSMOS 2251 DEB", "group": "cosmos-2251-debris", "lat": 12.625590007731441, "lon": -97.10749847209338, "alt_km": 686.6460115152859, "timestamp": "2025-12-03T22:42:33.029360+00:00", "meta": {"OBJECT_NAME": "COSMOS 2251 DEB", "OBJECT_ID": "1993-036ATW", "EPOCH": "2025-11-29T02:53:29.744160", "MEAN_MOTION": 14.50541303, "ECCENTRICITY": 0.00841977, "INCLINATION": 74.0237, "RA_OF_ASC_NODE": 95.6459, "ARG_OF_PERICENTER": 227.8885, "MEAN_ANOMALY": 309.997, "EPHEMERIS_TYPE": 0, "CLASSIFICATION_TYPE": "U", "NORAD_CAT_ID": 35883, "ELEMENT_SET_NO": 999, "REV_AT_EPOCH": 62188, "BSTAR": 0.00041574036, "MEAN_MOTION_DOT": 1.674e-05, "MEAN_MOTION_DDOT": 0}, "tle": {"line1": "1 35883U 93036ATW 25333.12048315  .00001674  00000+0  41574-3 0  9999", "line2": "2 35883  74.0237  95.6459 0084197 227.8885 309.9970 14.50541303621887"}}, "geometry": {"type": "Point", "coordinates": [-97.10749847209338, 12.625590007731441]}}]}